OBJECT_NAME,OBJECT_ID,EPOCH,MEAN_MOTION,ECCENTRICITY,INCLINATION,RA_OF_ASC_NODE,ARG_OF_PERICENTER,MEAN_ANOMALY,EPHEMERIS_TYPE,CLASSIFICATION_TYPE,NORAD_CAT_ID,ELEMENT_SET_NO,REV_AT_EPOCH,BSTAR,MEAN_MOTION_DOT,MEAN_MOTION_DDOT
STARLINK-5267,2023-021AD,2026-06-06T16:38:00.629376,14.98335753,.00031982,69.9994,300.1549,269.3673,90.7120,0,U,55655,999,18260,.720366E-4,.767E-5,0
STARLINK-5328,2023-021AF,2026-06-06T08:00:13.000320,14.98328132,.00032014,70.0009,301.1110,266.7924,269.2739,0,U,55657,999,577,.34102747E-2,.40834E-3,0
STARLINK-5307,2023-021AG,2026-06-07T03:27:14.082336,14.98332086,.0003111,69.9993,318.7933,268.5390,91.5412,0,U,55658,999,18219,.21039E-4,.158E-5,0
STARLINK-5477,2023-021AH,2026-06-07T02:20:49.900992,14.98333059,.000297,69.9991,299.1587,268.4409,91.6410,0,U,55659,999,18266,.17581E-4,.117E-5,0
STARLINK-5467,2023-021AJ,2026-06-06T02:42:18.234720,14.98761148,.0003517,70.0008,301.3527,286.7525,73.3248,0,U,55660,999,18253,.52842E-2,.64253E-3,0
STARLINK-5475,2023-021AK,2026-06-06T16:19:59.119104,14.98333120,.00028732,69.9999,300.1116,270.1534,89.9296,0,U,55661,999,18261,.66833073E-4,.705E-5,0
STARLINK-5479,2023-021AL,2026-06-06T16:36:47.240352,14.97525999,.00027678,69.9993,300.1632,269.5427,90.5415,0,U,55662,999,18261,.61992306E-4,.632E-5,0
STARLINK-5473,2023-021AM,2026-06-07T03:20:54.716352,14.98322546,.000302,69.9995,298.9028,269.1836,90.8977,0,U,55663,999,18267,.11996E-3,.1338E-4,0
STARLINK-5480,2023-021AN,2026-06-07T02:08:49.362144,14.98321587,.0002963,69.9995,299.1302,272.1687,87.9133,0,U,55664,999,18267,.86098E-4,.934E-5,0
STARLINK-5474,2023-021AP,2026-06-07T03:14:53.577312,14.98325970,.0003262,69.9995,298.8891,269.8426,90.2359,0,U,55665,999,18267,.8368E-4,.905E-5,0
STARLINK-5456,2023-021AR,2026-06-07T02:56:51.679104,14.98330393,.0003125,69.9990,298.8449,269.7237,90.3564,0,U,55667,999,18267,-.90502E-5,-.201E-5,0
STARLINK-5455,2023-021AS,2026-06-06T16:25:59.667168,14.98334097,.00030664,69.9996,300.1256,268.4111,91.6696,0,U,55668,999,18260,.17135715E-4,.111E-5,0
STARLINK-5459,2023-021AT,2026-06-06T16:13:59.210400,14.98340656,.00031446,69.9998,300.0964,268.7354,91.3445,0,U,55669,999,18260,.10360193E-3,.1144E-4,0
STARLINK-5423,2023-021AU,2026-06-07T03:08:52.903968,14.98330510,.0002909,69.9991,298.8724,270.0806,90.0020,0,U,55670,999,18268,.68386E-5,-.11E-6,0
STARLINK-5460,2023-021AV,2026-06-07T02:39:05.981760,14.98331860,.0003152,69.9991,299.1920,269.3909,90.6889,0,U,55671,999,18267,.25331E-4,.209E-5,0
STARLINK-5463,2023-021AX,2026-06-06T15:49:55.631424,14.98333924,.00030444,69.9991,300.0363,269.1796,90.9014,0,U,55673,999,18261,.4125809E-4,.399E-5,0
STARLINK-5462,2023-021AY,2026-06-07T02:50:51.150048,14.98332388,.000359,70.0011,298.8283,267.9476,92.1272,0,U,55674,999,18268,.4467E-3,.5241E-4,0
STARLINK-5232,2023-021AZ,2026-06-07T02:38:49.729920,14.98330724,.0003019,69.9992,298.8012,269.6104,90.4710,0,U,55675,999,18268,.20556E-4,.152E-5,0
STARLINK-5300,2023-021BA,2026-06-06T15:49:51.765888,14.98348673,.0003256,70.0011,280.1655,269.1150,90.9636,0,U,55676,999,18310,.56679E-3,.668E-4,0
STARLINK-5324,2023-021BB,2026-06-07T01:08:22.761024,14.98330752,.0003091,69.9985,279.1077,266.5870,93.4935,0,U,55677,999,18316,.4866E-4,.488E-5,0
ZHONGXING-26,2023-023A,2026-06-06T19:32:45.167424,1.00269430,.00040732,0.0686,72.2783,14.3447,226.9150,0,U,55686,999,1212,0,-.34E-5,0
HORUS 1,2023-025A,2026-06-07T11:56:55.022784,15.23501123,.0002074,97.3460,233.2959,128.6062,231.5361,0,U,55690,999,18257,.27996E-3,.6613E-4,0
STARLINK-5592,2023-028A,2026-06-06T15:45:16.623360,14.98331768,.0002588,70.0002,20.2575,269.7575,90.3288,0,U,55741,999,17955,.39134E-4,.374E-5,0
STARLINK-5594,2023-028B,2026-06-07T07:52:38.120736,14.98333811,.0002182,70.0007,18.5890,269.1980,90.8929,0,U,55742,999,17946,-.48049E-4,-.666E-5,0
STARLINK-5602,2023-028C,2026-06-07T07:58:38.792352,14.98324521,.0003158,69.9997,18.6052,266.5096,93.5702,0,U,55743,999,17946,.85041E-4,.922E-5,0
STARLINK-5601,2023-028D,2026-06-07T07:52:52.322304,14.98330120,.0002832,70.0005,18.5895,268.7060,91.3775,0,U,55744,999,17946,.1281E-5,-.78E-6,0
STARLINK-5579,2023-028F,2026-06-06T15:09:13.258080,14.98329407,.0002851,69.9995,20.1703,268.3498,91.7335,0,U,55746,999,17936,-.26205E-5,-.124E-5,0
STARLINK-5539,2023-028G,2026-06-07T07:34:35.723136,14.98333241,.0002968,70.0000,18.5447,270.6923,89.3896,0,U,55747,999,17946,.31484E-4,.283E-5,0
STARLINK-5580,2023-028H,2026-06-06T15:27:16.248384,14.98335940,.0003247,69.9988,20.2140,269.9042,90.1745,0,U,55748,999,17936,.25061E-4,.206E-5,0
STARLINK-5573,2023-028K,2026-06-07T07:22:34.519872,14.98329378,.0003596,69.9978,18.5137,269.9281,90.1466,0,U,55750,999,17946,-.84121E-4,-.1097E-4,0
