STARLINK-5267           
1 55655U 23021AD  26157.69306284  .00000767  00000+0  72037-4 0  9995
2 55655  69.9994 300.1549 0003198 269.3673  90.7120 14.98335753182607
STARLINK-5328           
1 55657U 23021AF  26157.33348380  .00040834  00000+0  34103-2 0  9990
2 55657  70.0009 301.1110 0003201 266.7924 269.2739 14.98328132  5773
STARLINK-5307           
1 55658U 23021AG  26158.14391299  .00000158  00000+0  21039-4 0  9999
2 55658  69.9993 318.7933 0003111 268.5390  91.5412 14.98332086182196
STARLINK-5477           
1 55659U 23021AH  26158.09779978  .00000117  00000+0  17581-4 0  9990
2 55659  69.9991 299.1587 0002970 268.4409  91.6410 14.98333059182666
STARLINK-5467           
1 55660U 23021AJ  26157.11271105  .00064253  00000+0  52842-2 0  9991
2 55660  70.0008 301.3527 0003517 286.7525  73.3248 14.98761148182536
STARLINK-5475           
1 55661U 23021AK  26157.68054536  .00000705  00000+0  66833-4 0  9990
2 55661  69.9999 300.1116 0002873 270.1534  89.9296 14.98333120182615
STARLINK-5479           
1 55662U 23021AL  26157.69221343  .00000632  00000+0  61992-4 0  9994
2 55662  69.9993 300.1632 0002767 269.5427  90.5415 14.97525999182615
STARLINK-5473           
1 55663U 23021AM  26158.13952218  .00001338  00000+0  11996-3 0  9999
2 55663  69.9995 298.9028 0003020 269.1836  90.8977 14.98322546182670
STARLINK-5480           
1 55664U 23021AN  26158.08946021  .00000934  00000+0  86098-4 0  9996
2 55664  69.9995 299.1302 0002963 272.1687  87.9133 14.98321587182677
STARLINK-5474           
1 55665U 23021AP  26158.13534233  .00000905  00000+0  83680-4 0  9993
2 55665  69.9995 298.8891 0003262 269.8426  90.2359 14.98325970182671
STARLINK-5456           
1 55667U 23021AR  26158.12282036 -.00000201  00000+0 -90502-5 0  9998
2 55667  69.9990 298.8449 0003125 269.7237  90.3564 14.98330393182678
STARLINK-5455           
1 55668U 23021AS  26157.68471837  .00000111  00000+0  17136-4 0  9997
2 55668  69.9996 300.1256 0003066 268.4111  91.6696 14.98334097182607
STARLINK-5459           
1 55669U 23021AT  26157.67637975  .00001144  00000+0  10360-3 0  9992
2 55669  69.9998 300.0964 0003144 268.7354  91.3445 14.98340656182601
STARLINK-5423           
1 55670U 23021AU  26158.13116787 -.00000011  00000+0  68386-5 0  9995
2 55670  69.9991 298.8724 0002909 270.0806  90.0020 14.98330510182681
STARLINK-5460           
1 55671U 23021AV  26158.11048590  .00000209  00000+0  25331-4 0  9990
2 55671  69.9991 299.1920 0003152 269.3909  90.6889 14.98331860182677
STARLINK-5463           
1 55673U 23021AX  26157.65967166  .00000399  00000+0  41258-4 0  9995
2 55673  69.9991 300.0363 0003044 269.1796  90.9014 14.98333924182614
STARLINK-5462           
1 55674U 23021AY  26158.11864757  .00005241  00000+0  44670-3 0  9991
2 55674  70.0011 298.8283 0003590 267.9476  92.1272 14.98332388182683
STARLINK-5232           
1 55675U 23021AZ  26158.11029780  .00000152  00000+0  20556-4 0  9995
2 55675  69.9992 298.8012 0003019 269.6104  90.4710 14.98330724182682
STARLINK-5300           
1 55676U 23021BA  26157.65962692  .00006680  00000+0  56679-3 0  9998
2 55676  70.0011 280.1655 0003256 269.1150  90.9636 14.98348673183106
STARLINK-5324           
1 55677U 23021BB  26158.04748566  .00000488  00000+0  48660-4 0  9997
2 55677  69.9985 279.1077 0003091 266.5870  93.4935 14.98330752183162
ZHONGXING-26            
1 55686U 23023A   26157.81441166 -.00000340  00000+0  00000+0 0  9998
2 55686   0.0686  72.2783 0004073  14.3447 226.9150  1.00269430 12124
HORUS 1                 
1 55690U 23025A   26158.49785906  .00006613  00000+0  27996-3 0  9998
2 55690  97.3460 233.2959 0002074 128.6062 231.5361 15.23501123182574
STARLINK-5592           
1 55741U 23028A   26157.65644240  .00000374  00000+0  39134-4 0  9996
2 55741  70.0002  20.2575 0002588 269.7575  90.3288 14.98331768179555
STARLINK-5594           
1 55742U 23028B   26158.32821899 -.00000666  00000+0 -48049-4 0  9990
2 55742  70.0007  18.5890 0002182 269.1980  90.8929 14.98333811179463
STARLINK-5602           
1 55743U 23028C   26158.33239343  .00000922  00000+0  85041-4 0  9995
2 55743  69.9997  18.6052 0003158 266.5096  93.5702 14.98324521179460
STARLINK-5601           
1 55744U 23028D   26158.32838336 -.00000078  00000+0  12810-5 0  9990
2 55744  70.0005  18.5895 0002832 268.7060  91.3775 14.98330120179469
STARLINK-5579           
1 55746U 23028F   26157.63140345 -.00000124  00000+0 -26205-5 0  9997
2 55746  69.9995  20.1703 0002851 268.3498  91.7335 14.98329407179366
STARLINK-5539           
1 55747U 23028G   26158.31569124  .00000283  00000+0  31484-4 0  9992
2 55747  70.0000  18.5447 0002968 270.6923  89.3896 14.98333241179468
STARLINK-5580           
1 55748U 23028H   26157.64393806  .00000206  00000+0  25061-4 0  9999
2 55748  69.9988  20.2140 0003247 269.9042  90.1745 14.98335940179365
STARLINK-5573           
1 55750U 23028K   26158.30734398 -.00001097  00000+0 -84121-4 0  9994
2 55750  69.9978  18.5137 0003596 269.9281  90.1466 14.98329378179464
